DUCHIFAT-3              
1 44854U 19089C   20171.15968798  .00000236  00000-0  25554-4 0  9992
2 44854  36.9670  88.2676 0007117  71.5307 288.6208 14.99070184 28551
ORBITAL FACTORY 2 (OF-2)
1 45113U 19071C   20171.50453027  .00001281  00000-0  50675-4 0  9998
2 45113  51.6451 353.6407 0013581  66.5736 293.6672 15.33362459 21444
